STARLINK-2534           
1 48311U 21036AM  26068.32574114  .00003677  00000+0  13616-3 0  9990
2 48311  53.1609  90.3234 0001322  82.9471 277.1680 15.30215725268168
YAOGAN-36 04C           
1 54750U 22171E   26068.78871400  .00016196  00000+0  54592-3 0  9991
2 54750  34.9797  96.6578 0006685 275.3761  84.6192 15.29852307180246
